2026-052C               
1 68200U 26052C   26080.98250804  .00005375  00000+0  33292-3 0  9994
2 68200  97.5367 157.1434 0011315 247.4363 112.5669 15.10143949   872
2026-052D               
1 68201U 26052D   26080.98193897  .00008926  00000+0  54765-3 0  9996
2 68201  97.5375 157.1411 0010492 243.2994 116.7162 15.10311726   881
2026-052E               
1 68202U 26052E   26080.91567039  .00009009  00000+0  55265-3 0  9992
2 68202  97.5374 157.0772 0010393 248.4914 111.5208 15.10313019   879
2026-052F               
1 68203U 26052F   26080.98096531  .00009009  00000+0  54896-3 0  9993
2 68203  97.5366 157.1495 0009639 239.5335 120.4943 15.10566548   886
2026-052G               
1 68204U 26052G   26080.98077374  .00008045  00000+0  49010-3 0  9999
2 68204  97.5376 157.1431 0009203 243.0973 116.9316 15.10614041   889
KZ-11 R/B               
1 68205U 26052H   26080.94783052  .00039530  19406-5  58623-3 0  9992
2 68205  97.3420 156.9554 0548430 354.3337   5.1820 14.66794380   852
2026-052J               
1 68206U 26052J   26080.81087457  .00074201  25463-5  10849-2 0  9996
2 68206  97.3423 156.8326 0547513 354.8569   4.7146 14.67141452   836
TEN-KOH 2               
1 68261U 25241B   26080.95903367  .00012008  00000+0  52280-3 0  9995
2 68261  51.6359  14.5221 0004443 198.4009 161.6808 15.22604343  1613
