CCSDS_OMM_VERS = 2.0
CREATION_DATE  = 
ORIGINATOR     = 

OBJECT_NAME    = 2026-052C
OBJECT_ID      = 2026-052C
CENTER_NAME    = EARTH
REF_FRAME      = TEME
TIME_SYSTEM    = UTC
MEAN_ELEMENT_THEORY = SGP/SGP4

EPOCH          = 2026-03-21T23:34:48.694656
MEAN_MOTION    = 15.10143949
ECCENTRICITY   = .00113157
INCLINATION    = 97.5367
RA_OF_ASC_NODE = 157.1434
ARG_OF_PERICENTER = 247.4363
MEAN_ANOMALY   = 112.5669

EPHEMERIS_TYPE = 0
CLASSIFICATION_TYPE = U
NORAD_CAT_ID   = 68200
ELEMENT_SET_NO = 999
REV_AT_EPOCH   = 87
BSTAR          = .33291785E-3
MEAN_MOTION_DOT = .5375E-4
MEAN_MOTION_DDOT = 0

CCSDS_OMM_VERS = 2.0
CREATION_DATE  = 
ORIGINATOR     = 

OBJECT_NAME    = 2026-052D
OBJECT_ID      = 2026-052D
CENTER_NAME    = EARTH
REF_FRAME      = TEME
TIME_SYSTEM    = UTC
MEAN_ELEMENT_THEORY = SGP/SGP4

EPOCH          = 2026-03-21T23:33:59.527008
MEAN_MOTION    = 15.10311726
ECCENTRICITY   = .00104925
INCLINATION    = 97.5375
RA_OF_ASC_NODE = 157.1411
ARG_OF_PERICENTER = 243.2994
MEAN_ANOMALY   = 116.7162

EPHEMERIS_TYPE = 0
CLASSIFICATION_TYPE = U
NORAD_CAT_ID   = 68201
ELEMENT_SET_NO = 999
REV_AT_EPOCH   = 88
BSTAR          = .54764803E-3
MEAN_MOTION_DOT = .8926E-4
MEAN_MOTION_DDOT = 0

CCSDS_OMM_VERS = 2.0
CREATION_DATE  = 
ORIGINATOR     = 

OBJECT_NAME    = 2026-052E
OBJECT_ID      = 2026-052E
CENTER_NAME    = EARTH
REF_FRAME      = TEME
TIME_SYSTEM    = UTC
MEAN_ELEMENT_THEORY = SGP/SGP4

EPOCH          = 2026-03-21T21:58:33.921696
MEAN_MOTION    = 15.10313019
ECCENTRICITY   = .00103934
INCLINATION    = 97.5374
RA_OF_ASC_NODE = 157.0772
ARG_OF_PERICENTER = 248.4914
MEAN_ANOMALY   = 111.5208

EPHEMERIS_TYPE = 0
CLASSIFICATION_TYPE = U
NORAD_CAT_ID   = 68202
ELEMENT_SET_NO = 999
REV_AT_EPOCH   = 87
BSTAR          = .55265294E-3
MEAN_MOTION_DOT = .9009E-4
MEAN_MOTION_DDOT = 0

CCSDS_OMM_VERS = 2.0
CREATION_DATE  = 
ORIGINATOR     = 

OBJECT_NAME    = 2026-052F
OBJECT_ID      = 2026-052F
CENTER_NAME    = EARTH
REF_FRAME      = TEME
TIME_SYSTEM    = UTC
MEAN_ELEMENT_THEORY = SGP/SGP4

EPOCH          = 2026-03-21T23:32:35.402784
MEAN_MOTION    = 15.10566548
ECCENTRICITY   = .0009639
INCLINATION    = 97.5366
RA_OF_ASC_NODE = 157.1495
ARG_OF_PERICENTER = 239.5335
MEAN_ANOMALY   = 120.4943

EPHEMERIS_TYPE = 0
CLASSIFICATION_TYPE = U
NORAD_CAT_ID   = 68203
ELEMENT_SET_NO = 999
REV_AT_EPOCH   = 88
BSTAR          = .54896007E-3
MEAN_MOTION_DOT = .9009E-4
MEAN_MOTION_DDOT = 0

CCSDS_OMM_VERS = 2.0
CREATION_DATE  = 
ORIGINATOR     = 

OBJECT_NAME    = 2026-052G
OBJECT_ID      = 2026-052G
CENTER_NAME    = EARTH
REF_FRAME      = TEME
TIME_SYSTEM    = UTC
MEAN_ELEMENT_THEORY = SGP/SGP4

EPOCH          = 2026-03-21T23:32:18.851136
MEAN_MOTION    = 15.10614041
ECCENTRICITY   = .00092032
INCLINATION    = 97.5376
RA_OF_ASC_NODE = 157.1431
ARG_OF_PERICENTER = 243.0973
MEAN_ANOMALY   = 116.9316

EPHEMERIS_TYPE = 0
CLASSIFICATION_TYPE = U
NORAD_CAT_ID   = 68204
ELEMENT_SET_NO = 999
REV_AT_EPOCH   = 88
BSTAR          = .49009575E-3
MEAN_MOTION_DOT = .8045E-4
MEAN_MOTION_DDOT = 0

CCSDS_OMM_VERS = 2.0
CREATION_DATE  = 
ORIGINATOR     = 

OBJECT_NAME    = KZ-11 R/B
OBJECT_ID      = 2026-052H
CENTER_NAME    = EARTH
REF_FRAME      = TEME
TIME_SYSTEM    = UTC
MEAN_ELEMENT_THEORY = SGP/SGP4

EPOCH          = 2026-03-21T22:44:52.556928
MEAN_MOTION    = 14.66794380
ECCENTRICITY   = .05484308
INCLINATION    = 97.3420
RA_OF_ASC_NODE = 156.9554
ARG_OF_PERICENTER = 354.3337
MEAN_ANOMALY   = 5.1820

EPHEMERIS_TYPE = 0
CLASSIFICATION_TYPE = U
NORAD_CAT_ID   = 68205
ELEMENT_SET_NO = 999
REV_AT_EPOCH   = 85
BSTAR          = .58623257E-3
MEAN_MOTION_DOT = .3953E-3
MEAN_MOTION_DDOT = .1940569E-5

CCSDS_OMM_VERS = 2.0
CREATION_DATE  = 
ORIGINATOR     = 

OBJECT_NAME    = 2026-052J
OBJECT_ID      = 2026-052J
CENTER_NAME    = EARTH
REF_FRAME      = TEME
TIME_SYSTEM    = UTC
MEAN_ELEMENT_THEORY = SGP/SGP4

EPOCH          = 2026-03-21T19:27:39.562848
MEAN_MOTION    = 14.67141452
ECCENTRICITY   = .05475136
INCLINATION    = 97.3423
RA_OF_ASC_NODE = 156.8326
ARG_OF_PERICENTER = 354.8569
MEAN_ANOMALY   = 4.7146

EPHEMERIS_TYPE = 0
CLASSIFICATION_TYPE = U
NORAD_CAT_ID   = 68206
ELEMENT_SET_NO = 999
REV_AT_EPOCH   = 83
BSTAR          = .10849295E-2
MEAN_MOTION_DOT = .74201E-3
MEAN_MOTION_DDOT = .2546338E-5

CCSDS_OMM_VERS = 2.0
CREATION_DATE  = 
ORIGINATOR     = 

OBJECT_NAME    = TEN-KOH 2
OBJECT_ID      = 2025-241B
CENTER_NAME    = EARTH
REF_FRAME      = TEME
TIME_SYSTEM    = UTC
MEAN_ELEMENT_THEORY = SGP/SGP4

EPOCH          = 2026-03-21T23:01:00.509088
MEAN_MOTION    = 15.22604343
ECCENTRICITY   = .00044431
INCLINATION    = 51.6359
RA_OF_ASC_NODE = 14.5221
ARG_OF_PERICENTER = 198.4009
MEAN_ANOMALY   = 161.6808

EPHEMERIS_TYPE = 0
CLASSIFICATION_TYPE = U
NORAD_CAT_ID   = 68261
ELEMENT_SET_NO = 999
REV_AT_EPOCH   = 161
BSTAR          = .52279515E-3
MEAN_MOTION_DOT = .12008E-3
MEAN_MOTION_DDOT = 0

